STARLINK-1863
1 17150C 20088AE  21326.12259468  .00001092  00000-0  73195-4 0  3261
2 17150  53.0512 133.1958 0001592  82.9377 311.9811 15.06388875    14
